{"type": "FeatureCollection", "features": [ {"type": "Feature", "properties": {"norad_id": 42741, "name": "EUTELSAT 172B", "group": "eutelsat", "lat": 0.019428649194507524, "lon": 158.7916377310727, "alt_km": 35785.717047320235, "timestamp": "2025-12-23T16:57:12.016382+00:00", "meta": {"OBJECT_NAME": "EUTELSAT 172B", "OBJECT_ID": "2017-029B", "EPOCH": "2025-12-23T03:40:40.728288", "MEAN_MOTION": 1.00270782, "ECCENTRICITY": 1.929e-05, "INCLINATION": 0.0272, "RA_OF_ASC_NODE": 120.5648, "ARG_OF_PERICENTER": 358.2887, "MEAN_ANOMALY": 200.2695, "EPHEMERIS_TYPE": 0, "CLASSIFICATION_TYPE": "U", "NORAD_CAT_ID": 42741, "ELEMENT_SET_NO": 999, "REV_AT_EPOCH": 3196, "BSTAR": 0, "MEAN_MOTION_DOT": 1.6e-07, "MEAN_MOTION_DDOT": 0}, "tle": {"line1": "1 42741U 17029B   25357.15324917  .00000016  00000+0  00000+0 0  9996", "line2": "2 42741   0.0272 120.5648 0000192 358.2887 200.2695  1.00270782 31960"}}, "geometry": {"type": "Point", "coordinates": [158.7916377310727, 0.019428649194507524]}}, {"type": "Feature", "properties": {"norad_id": 44334, "name": "EUTELSAT 7C", "group": "eutelsat", "lat": -0.0036427263045743703, "lon": -6.202370134202399, "alt_km": 35788.11325867057, "timestamp": "2025-12-23T16:57:12.016394+00:00", "meta": {"OBJECT_NAME": "EUTELSAT 7C", "OBJECT_ID": "2019-034B", "EPOCH": "2025-12-23T06:19:03.008928", "MEAN_MOTION": 1.00270531, "ECCENTRICITY": 0.00031249, "INCLINATION": 0.0725, "RA_OF_ASC_NODE": 179.1165, "ARG_OF_PERICENTER": 77.058, "MEAN_ANOMALY": 297.6215, "EPHEMERIS_TYPE": 0, "CLASSIFICATION_TYPE": "U", "NORAD_CAT_ID": 44334, "ELEMENT_SET_NO": 999, "REV_AT_EPOCH": 507, "BSTAR": 0, "MEAN_MOTION_DOT": 6.9e-07, "MEAN_MOTION_DDOT": 0}, "tle": {"line1": "1 44334U 19034B   25357.26322927  .00000069  00000+0  00000+0 0  9993", "line2": "2 44334   0.0725 179.1165 0003124  77.0580 297.6215  1.00270531  5074"}}, "geometry": {"type": "Point", "coordinates": [-6.202370134202399, -0.0036427263045743703]}}, {"type": "Feature", "properties": {"norad_id": 44624, "name": "EUTELSAT 5 WEST B", "group": "eutelsat", "lat": -0.007154100470668346, "lon": -18.178399500234505, "alt_km": 35781.83527973815, "timestamp": "2025-12-23T16:57:12.016406+00:00", "meta": {"OBJECT_NAME": "EUTELSAT 5 WEST B", "OBJECT_ID": "2019-067A", "EPOCH": "2025-12-23T06:15:40.832064", "MEAN_MOTION": 1.00271344, "ECCENTRICITY": 0.00030724, "INCLINATION": 0.0646, "RA_OF_ASC_NODE": 340.438, "ARG_OF_PERICENTER": 290.9122, "MEAN_ANOMALY": 269.6265, "EPHEMERIS_TYPE": 0, "CLASSIFICATION_TYPE": "U", "NORAD_CAT_ID": 44624, "ELEMENT_SET_NO": 999, "REV_AT_EPOCH": 2267, "BSTAR": 0, "MEAN_MOTION_DOT": -2.1e-07, "MEAN_MOTION_DDOT": 0}, "tle": {"line1": "1 44624U 19067A   25357.26088926 -.00000021  00000+0  00000+0 0  9998", "line2": "2 44624   0.0646 340.4380 0003072 290.9122 269.6265  1.00271344 22672"}}, "geometry": {"type": "Point", "coordinates": [-18.178399500234505, -0.007154100470668346]}}, {"type": "Feature", "properties": {"norad_id": 45027, "name": "EUTELSAT KONNECT", "group": "eutelsat", "lat": -0.07582585502224616, "lon": -5.996918590663385, "alt_km": 35784.68066311352, "timestamp": "2025-12-23T16:57:12.016418+00:00", "meta": {"OBJECT_NAME": "EUTELSAT KONNECT", "OBJECT_ID": "2020-005B", "EPOCH": "2025-12-22T14:54:44.385984", "MEAN_MOTION": 1.00271247, "ECCENTRICITY": 0.00013494, "INCLINATION": 0.0714, "RA_OF_ASC_NODE": 94.3931, "ARG_OF_PERICENTER": 184.6433, "MEAN_ANOMALY": 43.2748, "EPHEMERIS_TYPE": 0, "CLASSIFICATION_TYPE": "U", "NORAD_CAT_ID": 45027, "ELEMENT_SET_NO": 999, "REV_AT_EPOCH": 2256, "BSTAR": 0, "MEAN_MOTION_DOT": 7.1e-07, "MEAN_MOTION_DDOT": 0}, "tle": {"line1": "1 45027U 20005B   25356.62134706  .00000071  00000+0  00000+0 0  9991", "line2": "2 45027   0.0714  94.3931 0001349 184.6433  43.2748  1.00271247 22564"}}, "geometry": {"type": "Point", "coordinates": [-5.996918590663385, -0.07582585502224616]}}, {"type": "Feature", "properties": {"norad_id": 49056, "name": "EUTELSAT QUANTUM", "group": "eutelsat", "lat": 0.015823557967022762, "lon": 34.52917164022862, "alt_km": 35791.82269257423, "timestamp": "2025-12-23T16:57:12.016429+00:00", "meta": {"OBJECT_NAME": "EUTELSAT QUANTUM", "OBJECT_ID": "2021-069B", "EPOCH": "2025-12-23T04:50:38.650272", "MEAN_MOTION": 1.00271208, "ECCENTRICITY": 0.00034329, "INCLINATION": 0.0103, "RA_OF_ASC_NODE": 5.2659, "ARG_OF_PERICENTER": 276.4821, "MEAN_ANOMALY": 290.6158, "EPHEMERIS_TYPE": 0, "CLASSIFICATION_TYPE": "U", "NORAD_CAT_ID": 49056, "ELEMENT_SET_NO": 999, "REV_AT_EPOCH": 1616, "BSTAR": 0, "MEAN_MOTION_DOT": 1.47e-06, "MEAN_MOTION_DDOT": 0}, "tle": {"line1": "1 49056U 21069B   25357.20183623  .00000147  00000+0  00000+0 0  9999", "line2": "2 49056   0.0103   5.2659 0003432 276.4821 290.6158  1.00271208 16165"}}, "geometry": {"type": "Point", "coordinates": [34.52917164022862, 0.015823557967022762]}}, {"type": "Feature", "properties": {"norad_id": 53765, "name": "EUTELSAT KONNECT VHTS", "group": "eutelsat", "lat": -0.06443985289362007, "lon": -10.467207478872458, "alt_km": 35789.31913310591, "timestamp": "2025-12-23T16:57:12.016442+00:00", "meta": {"OBJECT_NAME": "EUTELSAT KONNECT VHTS", "OBJECT_ID": "2022-110A", "EPOCH": "2025-12-22T14:53:22.017408", "MEAN_MOTION": 1.00268229, "ECCENTRICITY": 0.00023717, "INCLINATION": 0.0613, "RA_OF_ASC_NODE": 98.5283, "ARG_OF_PERICENTER": 147.5122, "MEAN_ANOMALY": 71.4567, "EPHEMERIS_TYPE": 0, "CLASSIFICATION_TYPE": "U", "NORAD_CAT_ID": 53765, "ELEMENT_SET_NO": 999, "REV_AT_EPOCH": 505, "BSTAR": 0, "MEAN_MOTION_DOT": 3.8e-07, "MEAN_MOTION_DDOT": 0}, "tle": {"line1": "1 53765U 22110A   25356.62039372  .00000038  00000+0  00000+0 0  9994", "line2": "2 53765   0.0613  98.5283 0002371 147.5122  71.4567  1.00268229  5058"}}, "geometry": {"type": "Point", "coordinates": [-10.467207478872458, -0.06443985289362007]}}, {"type": "Feature", "properties": {"norad_id": 54048, "name": "EUTELSAT HOTBIRD 13F", "group": "eutelsat", "lat": 0.03863277848532892, "lon": -0.21541397147649127, "alt_km": 35776.366042257025, "timestamp": "2025-12-23T16:57:12.016453+00:00", "meta": {"OBJECT_NAME": "EUTELSAT HOTBIRD 13F", "OBJECT_ID": "2022-134A", "EPOCH": "2025-12-21T21:49:07.084128", "MEAN_MOTION": 1.00271763, "ECCENTRICITY": 0.00022808, "INCLINATION": 0.0525, "RA_OF_ASC_NODE": 292.4073, "ARG_OF_PERICENTER": 71.4737, "MEAN_ANOMALY": 67.1177, "EPHEMERIS_TYPE": 0, "CLASSIFICATION_TYPE": "U", "NORAD_CAT_ID": 54048, "ELEMENT_SET_NO": 999, "REV_AT_EPOCH": 1160, "BSTAR": 0, "MEAN_MOTION_DOT": 1.09e-06, "MEAN_MOTION_DDOT": 0}, "tle": {"line1": "1 54048U 22134A   25355.90910977  .00000109  00000+0  00000+0 0  9993", "line2": "2 54048   0.0525 292.4073 0002280  71.4737  67.1177  1.00271763 11607"}}, "geometry": {"type": "Point", "coordinates": [-0.21541397147649127, 0.03863277848532892]}}, {"type": "Feature", "properties": {"norad_id": 54225, "name": "EUTELSAT HOTBIRD 13G", "group": "eutelsat", "lat": 0.03166699922875112, "lon": -0.12917922718601185, "alt_km": 35783.72530131577, "timestamp": "2025-12-23T16:57:12.016465+00:00", "meta": {"OBJECT_NAME": "EUTELSAT HOTBIRD 13G", "OBJECT_ID": "2022-146A", "EPOCH": "2025-12-22T04:02:38.705856", "MEAN_MOTION": 1.00287196, "ECCENTRICITY": 6.245e-05, "INCLINATION": 0.0535, "RA_OF_ASC_NODE": 228.1743, "ARG_OF_PERICENTER": 347.6873, "MEAN_ANOMALY": 308.7697, "EPHEMERIS_TYPE": 0, "CLASSIFICATION_TYPE": "U", "NORAD_CAT_ID": 54225, "ELEMENT_SET_NO": 999, "REV_AT_EPOCH": 569, "BSTAR": 0, "MEAN_MOTION_DOT": 1.11e-06, "MEAN_MOTION_DDOT": 0}, "tle": {"line1": "1 54225U 22146A   25356.16850354  .00000111  00000+0  00000+0 0  9997", "line2": "2 54225   0.0535 228.1743 0000624 347.6873 308.7697  1.00287196  5694"}}, "geometry": {"type": "Point", "coordinates": [-0.12917922718601185, 0.03166699922875112]}}, {"type": "Feature", "properties": {"norad_id": 54259, "name": "EUTELSAT 10B", "group": "eutelsat", "lat": -0.06300197214742197, "lon": -3.1953303193593037, "alt_km": 35786.2753014643, "timestamp": "2025-12-23T16:57:12.016480+00:00", "meta": {"OBJECT_NAME": "EUTELSAT 10B", "OBJECT_ID": "2022-157A", "EPOCH": "2025-12-23T01:11:43.653984", "MEAN_MOTION": 1.00272927, "ECCENTRICITY": 7.192e-05, "INCLINATION": 0.061, "RA_OF_ASC_NODE": 96.1012, "ARG_OF_PERICENTER": 1.3181, "MEAN_ANOMALY": 22.3816, "EPHEMERIS_TYPE": 0, "CLASSIFICATION_TYPE": "U", "NORAD_CAT_ID": 54259, "ELEMENT_SET_NO": 999, "REV_AT_EPOCH": 1126, "BSTAR": 0, "MEAN_MOTION_DOT": 9e-07, "MEAN_MOTION_DDOT": 0}, "tle": {"line1": "1 54259U 22157A   25357.04981081  .00000090  00000+0  00000+0 0  9992", "line2": "2 54259   0.0610  96.1012 0000719   1.3181  22.3816  1.00272927 11266"}}, "geometry": {"type": "Point", "coordinates": [-3.1953303193593037, -0.06300197214742197]}}, {"type": "Feature", "properties": {"norad_id": 59346, "name": "EUTELSAT 36D", "group": "eutelsat", "lat": -0.0006781937362070213, "lon": 22.657378588199926, "alt_km": 35784.47563357816, "timestamp": "2025-12-23T16:57:12.016496+00:00", "meta": {"OBJECT_NAME": "EUTELSAT 36D", "OBJECT_ID": "2024-059A", "EPOCH": "2025-12-23T04:44:34.558080", "MEAN_MOTION": 1.00272355, "ECCENTRICITY": 3.386e-05, "INCLINATION": 0.0179, "RA_OF_ASC_NODE": 31.8339, "ARG_OF_PERICENTER": 337.3972, "MEAN_ANOMALY": 189.7731, "EPHEMERIS_TYPE": 0, "CLASSIFICATION_TYPE": "U", "NORAD_CAT_ID": 59346, "ELEMENT_SET_NO": 999, "REV_AT_EPOCH": 638, "BSTAR": 0, "MEAN_MOTION_DOT": 1.77e-06, "MEAN_MOTION_DDOT": 0}, "tle": {"line1": "1 59346U 24059A   25357.19762220  .00000177  00000+0  00000+0 0  9991", "line2": "2 59346   0.0179  31.8339 0000338 337.3972 189.7731  1.00272355  6389"}}, "geometry": {"type": "Point", "coordinates": [22.657378588199926, -0.0006781937362070213]}}]}